satname,norad_id,inclination_deg,eccentricity,mean_motion_rev_per_day,perigee_km,apogee_km,l1,l2
STARLINK-1404,45686,53.1584,0.0002002,15.38903199,447.9845696462571,450.7182960147629,1 45686U 20035AF  26104.64871601  .00036452  00000+0  93863-3 0  9996,2 45686  53.1584 241.5808 0002002 355.4969   4.6017 15.38903199324498
STARLINK-1413,45689,53.1588,0.0001546,15.30686594,472.70326866792584,474.8218760156933,1 45689U 20035AJ  26104.75476922  .00029797  00000+0  99902-3 0  9992,2 45689  53.1588 242.0450 0001546  51.3707 308.7433 15.30686594324419
STARLINK-1417,45693,53.0492,0.000365,15.14421371,520.2169689027987,525.2546060376508,1 45693U 20035AN  26104.78546558  .00018329  00000+0  99989-3 0  9997,2 45693  53.0492 250.4719 0003650 348.3591  11.7316 15.14421371324363
STARLINK-1420,45695,53.0472,0.0005926,15.61320356,379.8349914305754,387.849289107623,1 45695U 20035AQ  26104.61563044  .00081431  00000+0  93625-3 0  9995,2 45695  53.0472 208.1167 0005926 309.8471  50.2020 15.61320356324955
STARLINK-1422,45696,53.157,0.000115,15.3087442,472.4142081736063,473.9900161694068,1 45696U 20035AR  26104.76135780  .00031277  00000+0  10418-2 0  9995,2 45696  53.1570 242.0081 0001150  39.1172 320.9911 15.30874420324491
STARLINK-1351,45697,53.0478,0.0006455,15.59047595,386.0431344761646,394.7813315359763,1 45697U 20035AS  26104.62756528  .00033903  00000+0  43133-3 0  9999,2 45697  53.0478 207.6616 0006455 317.8093  42.2422 15.59047595324969
STARLINK-1400,45700,53.0459,0.0005211,15.57488696,391.3984878783913,398.45737615053713,1 45700U 20035AV  26104.77013986  .00061014  00000+0  81512-3 0  9991,2 45700  53.0459 208.8078 0005211 272.3922  87.6492 15.57488696324951
STARLINK-1403,45701,53.1585,0.0001115,15.29869498,475.4378076622361,476.9663252740593,1 45701U 20035AW  26104.60632582  .00025945  00000+0  89409-3 0  9999,2 45701  53.1585 229.8745 0001115  47.4318 312.6776 15.29869498324640
STARLINK-1407,45703,53.0299,0.0002963,15.66362791,367.3229621533028,371.3215064955639,1 45703U 20035AY  26104.80932250  .00028304  00000+0  27222-3 0  9995,2 45703  53.0299 138.7720 0002963 271.9706  88.0970 15.66362791325940
STARLINK-1411,45706,53.0392,0.0005881,15.70846845,352.5148717388529,360.4361229582346,1 45706U 20035BB  26104.87334649  .00114323  00000+0  89155-3 0  9993,2 45706  53.0392 163.4973 0005881 355.6703   4.4262 15.70846845325590
STARLINK-1423,45710,53.0446,0.0006942,15.5998208,383.0120442996922,392.4057447396435,1 45710U 20035BF  26103.71960066  .00071965  00000+0  87245-3 0  9990,2 45710  53.0446 212.3261 0006942 287.3568  72.6685 15.59982080324806
STARLINK-1433,45711,53.0451,0.0006433,15.62519663,376.03385207292104,384.7293621128065,1 45711U 20035BG  26104.78353411  .00068255  00000+0  75120-3 0  9996,2 45711  53.0451 205.6210 0006433 290.5379  69.4943 15.62519663324991
STARLINK-1434,45712,53.0504,0.0002702,15.30297808,473.0713510909645,476.7747447408592,1 45712U 20035BH  26104.59752697  .00029530  00000+0  10020-2 0  9995,2 45712  53.0504 213.2735 0002702 275.8307  84.2384 15.30297808324881
STARLINK-1465,45731,53.0482,0.0005544,15.55979407,395.5496925596435,403.064522586119,1 45731U 20038B   26104.81401602  .00060301  00000+0  85213-3 0  9999,2 45731  53.0482  49.0565 0005544  70.4852 289.6757 15.55979407321997
STARLINK-1471,45735,53.0466,0.0001789,15.50947164,412.7442646176978,415.1744766991196,1 45735U 20038F   26104.88514406  .00014358  00000+0  25089-3 0  9993,2 45735  53.0466 328.3428 0001789  58.3510 301.7673 15.50947164323149
STARLINK-1480,45741,53.0511,0.0002913,15.58105763,391.16708642715093,395.1120321505932,1 45741U 20038M   26104.82598244  .00057886  00000+0  75659-3 0  9997,2 45741  53.0511  42.9916 0002913 139.7271 220.3956 15.58105763322098
STARLINK-1500,45744,53.0373,0.0003446,15.36776521,453.2939006512843,458.00374584066594,1 45744U 20038Q   26104.46924114  .00014028  00000+0  39458-3 0  9997,2 45744  53.0373  24.6544 0003446  53.1352 306.9965 15.36776521322310
STARLINK-1504,45746,53.0227,7.41e-05,15.55722941,399.5496791498699,400.5542067512142,1 45746U 20038S   26104.88422281  .00019261  00000+0  28103-3 0  9992,2 45746  53.0227 327.2289 0000741  76.4583 283.6510 15.55722941323144
STARLINK-1506,45747,53.0782,0.0003889,15.27185365,481.56225472636834,486.89980457983165,1 45747U 20038T   26104.79749097  .00007978  00000+0  30800-3 0  9999,2 45747  53.0782  35.2260 0003889  34.2231 325.9017 15.27185365322204
STARLINK-1464,45751,53.0494,0.0003303,15.48608653,418.5496678539994,423.04104256785104,1 45751U 20038X   26104.50924164  .00048331  00000+0  89312-3 0  9993,2 45751  53.0494  33.7624 0003303  79.9799 280.1581 15.48608653322191
STARLINK-1477,45754,53.0488,0.0003414,15.16311324,514.6463620146769,519.3543618053891,1 45754U 20038AA  26104.84223816  .00017089  00000+0  88509-3 0  9992,2 45754  53.0488  48.3913 0003414  91.7123 268.4262 15.16311324322013
STARLINK-1478,45755,53.049,0.0003096,15.61378864,381.57975948399326,385.7666723696948,1 45755U 20038AB  26104.16541890  .00062571  00000+0  72124-3 0  9995,2 45755  53.0490  25.5341 0003096  69.0164 291.1180 15.61378864322269
STARLINK-1493,45759,53.0506,0.0004802,15.56648537,394.1111694600859,400.61836135558315,1 45759U 20038AF  26104.86619269  .00062716  00000+0  86418-3 0  9994,2 45759  53.0506  30.0323 0004802 133.3609 226.7803 15.56648537322264
STARLINK-1494,45760,53.0459,0.0004233,15.82797668,319.69676356385753,325.36955091897835,1 45760U 20038AG  26104.85159681  .00096726  00000+0  44615-3 0  9993,2 45760  53.0459 330.6893 0004233 157.0531 203.0681 15.82797668323104
STARLINK-1502,45764,53.0495,0.0006146,15.5303521,403.6993720149685,412.0407318832249,1 45764U 20038AL  26104.85873618  .00051188  00000+0  80733-3 0  9994,2 45764  53.0495  32.4812 0006146 120.4622 239.6995 15.53035210322249
STARLINK-1470,45772,53.0464,0.0003253,15.31327099,469.62351790912726,474.08012063494607,1 45772U 20038AU  26104.87229646  .00027187  00000+0  89484-3 0  9995,2 45772  53.0464   5.9606 0003253 130.7216 229.4067 15.31327099322612
STARLINK-1482,45773,53.1606,0.000354,15.3340328,463.2445999354177,468.09001338453254,1 45773U 20038AV  26104.50647273  .00027867  00000+0  85933-3 0  9996,2 45773  53.1606  24.3029 0003540 126.1765 233.9565 15.33403280322334
STARLINK-1496,45780,53.0497,6.67e-05,15.54619078,402.8078295120704,403.7124678917071,1 45780U 20038BC  26104.01172209  .00063714  00000+0  94613-3 0  9998,2 45780  53.0497   8.0037 0000667 223.9773 136.1184 15.54619078322494
STARLINK-1513,45786,53.1607,0.0001299,15.30208367,474.29983999069464,476.0803343679436,1 45786U 20038BJ  26104.48298685  .00003196  00000+0  11994-3 0  9991,2 45786  53.1607  24.8947 0001299 110.6672 249.4468 15.30208367322326
STARLINK-1522,46027,53.065,0.0002105,15.10876849,532.0696470439225,534.9794565572302,1 46027U 20055A   26104.88803295  .00012678  00000+0  76915-3 0  9991,2 46027  53.0650 323.1230 0002105 154.1345 205.9752 15.10876849314350
STARLINK-1523,46028,53.1561,0.0001671,15.30167615,474.16655560835534,476.45697818625285,1 46028U 20055B   26104.31477621  .00004247  00000+0  15560-3 0  9992,2 46028  53.1561 321.2268 0001671  98.3072 261.8118 15.30167615314359
STARLINK-1526,46029,53.1573,0.0001311,15.30183887,474.364699591466,476.16166111875555,1 46029U 20055C   26104.30844280  .00002656  00000+0  10183-3 0  9999,2 46029  53.1573 321.2675 0001311  94.0122 266.1028 15.30183887314341
STARLINK-1555,46032,53.1587,0.000111,15.3021179,474.41914865829403,475.9405850027297,1 46032U 20055F   26104.88046287  .00001376  00000+0  58545-4 0  9990,2 46032  53.1587 318.5904 0001110 356.3741   3.7252 15.30211790314431
STARLINK-1556,46033,53.1595,0.0001532,15.2986075,475.1781072010881,477.27828469712676,1 46033U 20055G   26104.86347414  .00060530  00000+0  20607-2 0  9998,2 46033  53.1595 318.6872 0001532  98.0256 262.0918 15.29860750314405
STARLINK-1557,46034,53.1556,0.000134,15.29388322,476.72099133036227,478.5583394766909,1 46034U 20055H   26104.85779605  .00004998  00000+0  18524-3 0  9991,2 46034  53.1556 318.6181 0001340  91.0768 269.0386 15.29388322314400
STARLINK-1558,46035,53.1606,0.0001122,15.30204247,474.43344399277066,475.97133335158924,1 46035U 20055J   26104.87415064  .00002000  00000+0  79630-4 0  9998,2 46035  53.1606 318.6352 0001122  93.2011 266.9118 15.30204247314437
STARLINK-1560,46036,53.1563,0.0001389,15.29360499,476.77053569392956,478.6750935504315,1 46036U 20055K   26104.85459194  .00001102  00000+0  50518-4 0  9995,2 46036  53.1563 318.6734 0001389  98.6359 261.4799 15.29360499314438
STARLINK-1567,46038,53.0865,6.46e-05,15.87593033,308.6013348538954,309.46531726002195,1 46038U 20055M   26104.88884413  .00199083  00000+0  71824-3 0  9994,2 46038  53.0865 312.0390 0000646 130.8600 229.2480 15.87593033314517
STARLINK-1569,46039,53.1576,0.0001181,15.3019982,474.4062259240609,476.02498780980204,1 46039U 20055N   26104.81199161  .00004203  00000+0  15394-3 0  9996,2 46039  53.1576 318.9193 0001181  89.5816 270.5320 15.30199820314413
STARLINK-1582,46043,53.1612,0.0001735,15.31136612,471.23136884815995,473.6085121065071,1 46043U 20055S   26104.68651743  .00106021  00000+0  34398-2 0  9990,2 46043  53.1612 319.4797 0001735 101.8868 258.2328 15.31136612314394
STARLINK-1591,46045,53.1628,0.0001302,15.30205296,474.3069521829375,476.0915609441472,1 46045U 20055U   26104.84463609  .00003336  00000+0  12470-3 0  9995,2 46045  53.1628 318.7685 0001302 107.3894 252.7249 15.30205296314408
STARLINK-1524,46047,53.159,0.0001145,15.30199252,474.43259374573245,476.0020118810771,1 46047U 20055W   26104.83881821  .00000624  00000+0  33183-4 0  9998,2 46047  53.1590 305.9303 0001145  79.5256 280.5874 15.30199252314609
STARLINK-1527,46048,53.1606,0.0001279,15.30184988,474.3833434492399,476.13644237444714,1 46048U 20055X   26104.84515311  .00006509  00000+0  23179-3 0  9999,2 46048  53.1606 306.0011 0001279  93.4203 266.6944 15.30184988314581
